INTELSAT 21 (IS-21)     
1 38749U 12045A   26160.47293218 -.00000268  00000+0  00000+0 0  9999
2 38749   0.0247 280.5498 0001705 177.4937 272.0574  1.00267497 50449
INTELSAT 23 (IS-23)     
1 38867U 12057A   26160.18030709 -.00000268  00000+0  00000+0 0  9995
2 38867   0.0104 345.9313 0000467 117.0400 166.5175  1.00274773 49877
FM-6                    
1 39360U 13058A   26159.62959519  .00000003  00000+0  00000+0 0  9998
2 39360   0.0107  82.6412 0002771  69.5183 215.1325  1.00255605 45982
INTELSAT 30 (IS-30)     
1 40271U 14062A   26160.45931153 -.00000133  00000+0  00000+0 0  9999
2 40271   0.0210  37.4356 0000875 356.8023 293.8423  1.00267702  6714
DIRECTV 14              
1 40333U 14078B   26160.05357880 -.00000109  00000+0  00000+0 0  9993
2 40333   0.0091   1.3268 0000235 206.1301 330.0282  1.00271044 41965
DIRECTV 15              
1 40663U 15026A   26160.03626279 -.00000086  00000+0  00000+0 0  9996
2 40663   0.0035  71.5412 0000541 190.7091 265.3619  1.00272723 40387
SKY MEXICO-1            
1 40664U 15026B   26160.41390508 -.00000217  00000+0  00000+0 0  9998
2 40664   0.0131 295.8908 0002147 161.2945 230.8166  1.00271354 40373
INTELSAT 34 (IS-34)     
1 40874U 15039A   26160.47345218 -.00000268  00000+0  00000+0 0  9995
2 40874   0.0125 316.3952 0000390  26.6951  29.7232  1.00270548 39557
INTELSAT 31 (IS-31)     
1 41581U 16035A   26160.45931213 -.00000134  00000+0  00000+0 0  9994
2 41581   0.0197 262.6352 0000920 341.1411  84.3698  1.00270432 36602
INTELSAT 36 (IS-36)     
1 41747U 16053A   26160.49805235 -.00000007  00000+0  00000+0 0  9995
2 41747   0.0109 349.9262 0001892 345.6450 170.0964  1.00270489 35889
INTELSAT 32E (IS-32E)   
1 41945U 17007B   26160.08652259 -.00000252  00000+0  00000+0 0  9998
2 41945   0.0023 348.0424 0000672 336.8096 280.6015  1.00274840 34145
INTELSAT 35E (IS-35E)   
1 42818U 17041A   26160.47761220 -.00000221  00000+0  00000+0 0  9994
2 42818   0.0189   7.5995 0001633  70.2855 317.4382  1.00271510 32738
INTELSAT 37E (IS-37E)   
1 42950U 17059A   26160.40959303 -.00000124  00000+0  00000+0 0  9996
2 42950   0.0190  10.9566 0002299  91.6448 284.6437  1.00269921 31988
AZERSPACE 2 (IS-38)     
1 43632U 18074A   26160.49337234  .00000154  00000+0  00000+0 0  9996
2 43632   0.0130 325.5302 0001321 113.5202  41.5436  1.00271476 28376
HORIZONS-3E             
1 43633U 18074B   26160.16142285 -.00000014  00000+0  00000+0 0  9997
2 43633   0.0093 158.1609 0000957 124.5481 201.9406  1.00270197 28266
AT&T T-16               
1 44333U 19034A   26160.46149944 -.00000098  00000+0  00000+0 0  9996
2 44333   0.0237  67.0112 0000632 188.4482  67.6581  1.00268708 25556
INTELSAT 39 (IS-39)     
1 44476U 19049B   26160.00679632  .00000051  00000+0  00000+0 0  9990
2 44476   0.0162 310.4453 0001155  11.0959   0.2561  1.00266551 25044
GALAXY 30 (G-30)        
1 46114U 20056C   26160.47141817  .00000054  00000+0  00000+0 0  9994
2 46114   0.0180 315.5417 0002155 118.8531 228.1647  1.00273347 21216
GALAXY 33 (G-33)        
1 54026U 22128A   26160.47418949  .00000096  00000+0  00000+0 0  9996
2 54026   0.0120 310.7698 0001836 134.5963 210.2085  1.00271439 13666
GALAXY 34 (G-34)        
1 54027U 22128B   26159.95980211  .00000075  00000+0  00000+0 0  9991
2 54027   0.0154 329.7482 0001861 136.9348   7.2031  1.00274719 13834
GALAXY 31 (G-31)        
1 54243U 22153A   26160.46927714  .00000030  00000+0  00000+0 0  9997
2 54243   0.0130 270.6969 0001275 166.7987 228.2957  1.00272101  7053
GALAXY 32 (G-32)        
1 54244U 22153B   26160.32382733 -.00000157  00000+0  00000+0 0  9990
2 54244   0.0091 331.9838 0002164  65.0548 246.2445  1.00270919 13063
GALAXY 35 (G-35)        
1 54741U 22170A   26160.45862207 -.00000145  00000+0  00000+0 0  9991
2 54741   0.0337 106.4075 0002031 335.1959 248.2408  1.00271145 12811
GALAXY 36 (G-36)        
1 54742U 22170B   26160.39555296 -.00000168  00000+0  00000+0 0  9997
2 54742   0.0150 151.7517 0002652 291.6745 227.7498  1.00270817 12699
GALAXY 37 (G-37)        
1 57493U 23112A   26160.57420084  .00000065  00000+0  00000+0 0  9991
2 57493   0.0177 353.8406 0001889  86.5458 257.2803  1.00271812 10466
